RASSVET-3 14            
1 68373U 26061P   26092.60848426  .00086561  14551-5  29480-3 0  9992
2 68373  82.2968  97.4997 0025836  37.1973 323.1081 15.89091848  1577
RASSVET-3 15            
1 68374U 26061Q   26090.65615487  .00065252  33249-6  22471-3 0  9998
2 68374  82.2970  99.7096 0026059  44.1575 316.1770 15.88835235  1268
RASSVET-3 16            
1 68375U 26061R   26092.79596296  .00138896  56293-5  45935-3 0  9990
2 68375  82.2959  97.2829 0024831  37.1583 323.1401 15.89747619  1606
SUPERVIEW NEO-2 OBJECT A
1 68377U 26062A   26092.89350537  .00003957  00000+0  18358-3 0  9997
2 68377  97.4366 101.2682 0006431 236.6518 123.4102 15.20606398  1210
SUPERVIEW NEO-2 OBJECT B
1 68378U 26062B   26090.72162118  .00004270  00000+0  19791-3 0  9995
2 68378  97.4347  99.1253 0008952 250.4427 109.5842 15.20585060   882
CZ-2D R/B               
1 68379U 26062C   26092.83857183  .00015868  00000+0  50681-3 0  9991
2 68379  97.4979 101.2000 0052887  34.2772 326.1863 15.31165523  1214
STARLINK-36296          
1 68380U 26063A   26092.75002314 -.01726598  88222-3 -38470-2 0  9992
2 68380  97.2834 233.5389 0001508  67.8630  74.8208 15.97982213  2320
STARLINK-37111          
1 68381U 26063B   26092.75002314 -.01724681  88159-3 -38169-2 0  9998
2 68381  97.2834 233.5399 0001572  67.6845  76.8108 15.98104329  2325
STARLINK-36946          
1 68382U 26063C   26092.75002314 -.01740716  89842-3 -38222-2 0  9996
2 68382  97.2827 233.5405 0001481  74.3083  72.6109 15.98248988  2329
STARLINK-37121          
1 68383U 26063D   26092.75002314 -.01739258  89964-3 -37639-2 0  9992
2 68383  97.2829 233.5429 0001608  66.6097  84.9503 15.98510861  2324
STARLINK-37137          
1 68384U 26063E   26092.75002314 -.01732404  89164-3 -37777-2 0  9994
2 68384  97.2831 233.5416 0001639  66.3758  82.6105 15.98372709  2329
STARLINK-37128          
1 68385U 26063F   26092.75002314 -.01759455  92081-3 -37773-2 0  9998
2 68385  97.2831 233.5440 0001616  74.3986  79.7580 15.98657525  2274
